GLOBALSTAR M045         
1 25676U 99019A   25322.78326498 -.00000075  00000+0  16402-3 0  9993
2 25676  51.9958 224.6353 0000940  77.1686 317.8641 12.27068307212379
GLOBALSTAR M019         
1 25677U 99019B   25322.60025287 -.00000152  00000+0 -64564-3 0  9996
2 25677  51.9909   6.3889 0001028 259.9968 267.0267 12.13879422203896
GLOBALSTAR M044         
1 25678U 99019C   25322.80944184 -.00000068  00000+0  21908-3 0  9995
2 25678  51.9991 336.5114 0006145 338.8023 192.6382 11.90259642189738
GLOBALSTAR M042         
1 25679U 99019D   25322.75148162 -.00000075  00000+0  16000-3 0  9997
2 25679  52.0034 334.6124 0002862 257.9244 273.3438 12.22091259204154
GLOBALSTAR M025         
1 25770U 99031A   25322.61497693 -.00000031  00000+0  11281-2 0  9991
2 25770  51.9772 161.5277 0003134  56.4977 342.6727 11.22558402499050
GLOBALSTAR M049         
1 25771U 99031B   25322.67544397 -.00000007  00000+0  20354-2 0  9996
2 25771  51.9851 203.9156 0002049 292.7568  67.3012 11.12122415134617
GLOBALSTAR M047         
1 25772U 99031C   25322.59920763 -.00000031  00000+0  10634-2 0  9990
2 25772  51.9796 186.3045 0016367 163.7202 196.4132 11.31931343488592
GLOBALSTAR M052         
1 25773U 99031D   25322.24424867 -.00000023  00000+0  14323-2 0  9997
2 25773  51.9883 311.3997 0002786  62.7586  29.2506 11.15061917495699
